[{"OBJECT_NAME":"STARLINK-11369 [DTC]","OBJECT_ID":"2024-220H","EPOCH":"2026-03-09T22:28:52.141440","MEAN_MOTION":15.70968962,"ECCENTRICITY":0.00015851,"INCLINATION":42.9982,"RA_OF_ASC_NODE":41.4375,"ARG_OF_PERICENTER":224.2395,"MEAN_ANOMALY":135.8347,"EPHEMERIS_TYPE":0,"CLASSIFICATION_TYPE":"U","NORAD_CAT_ID":62095,"ELEMENT_SET_NO":999,"REV_AT_EPOCH":7509,"BSTAR":0.0016968658,"MEAN_MOTION_DOT":0.00224478,"MEAN_MOTION_DDOT":0},{"OBJECT_NAME":"W-SERIES 4","OBJECT_ID":"2025-135R","EPOCH":"2026-03-09T19:54:39.716640","MEAN_MOTION":15.01503849,"ECCENTRICITY":0.04025811,"INCLINATION":97.4458,"RA_OF_ASC_NODE":182.1022,"ARG_OF_PERICENTER":65.9998,"MEAN_ANOMALY":298.2822,"EPHEMERIS_TYPE":0,"CLASSIFICATION_TYPE":"U","NORAD_CAT_ID":64543,"ELEMENT_SET_NO":999,"REV_AT_EPOCH":3954,"BSTAR":0.00063083397,"MEAN_MOTION_DOT":0.00052628,"MEAN_MOTION_DDOT":2.148409e-6}]
